XRISM                   
1 57800U 23137A   23293.81827524  .00005293  00000+0  42763-3 0  9995
2 57800  31.0028  99.0566 0010418 349.9634  10.0791 14.98297606  6571
